[{"OBJECT_NAME":"LYNK TOWER 4","OBJECT_ID":"2023-001AB","EPOCH":"2026-03-09T16:15:30.644928","MEAN_MOTION":15.31819885,"ECCENTRICITY":0.00103213,"INCLINATION":97.3324,"RA_OF_ASC_NODE":128.594,"ARG_OF_PERICENTER":112.3386,"MEAN_ANOMALY":247.895,"EPHEMERIS_TYPE":0,"CLASSIFICATION_TYPE":"U","NORAD_CAT_ID":55034,"ELEMENT_SET_NO":999,"REV_AT_EPOCH":17658,"BSTAR":0.00030013829,"MEAN_MOTION_DOT":9.16e-5,"MEAN_MOTION_DDOT":0},{"OBJECT_NAME":"STARLINK-34673","OBJECT_ID":"2025-167N","EPOCH":"2026-03-09T06:40:38.602848","MEAN_MOTION":15.30197018,"ECCENTRICITY":0.00011285,"INCLINATION":53.1616,"RA_OF_ASC_NODE":28.797,"ARG_OF_PERICENTER":99.5608,"MEAN_ANOMALY":260.5521,"EPHEMERIS_TYPE":0,"CLASSIFICATION_TYPE":"U","NORAD_CAT_ID":65090,"ELEMENT_SET_NO":999,"REV_AT_EPOCH":3341,"BSTAR":0.0014778358,"MEAN_MOTION_DOT":0.00043663,"MEAN_MOTION_DDOT":0}]
