LYNK TOWER 4            
1 55034U 23001AB  26068.67743801  .00009160  00000+0  30014-3 0  9997
2 55034  97.3324 128.5940 0010321 112.3386 247.8950 15.31819885176588
STARLINK-34673          
1 65090U 25167N   26068.27822457  .00043663  00000+0  14778-2 0  9990
2 65090  53.1616  28.7970 0001128  99.5608 260.5521 15.30197018 33413
